{
  "type": "FeatureCollection",
  "features": [
    {
      "type": "Feature",
      "properties": {
        "norad_id": 30505,
        "name": "FENGYUN 1C DEB",
        "group": "fengyun-1c-debris",
        "lat": -60.99281722761513,
        "lon": 88.94264838599884,
        "alt_km": 811.6009428361513,
        "timestamp": "2025-12-18T17:50:15.233774+00:00",
        "meta_object_name": "FENGYUN 1C DEB",
        "meta_object_id": "1999-025AHT",
        "meta_epoch": "2025-12-18T04:53:02.364576",
        "meta_mean_motion": 14.22074015,
        "meta_eccentricity": 0.00639376,
        "meta_inclination": 98.9266,
        "meta_ra_of_asc_node": 71.9296,
        "meta_arg_of_pericenter": 226.4924,
        "meta_mean_anomaly": 188.9861,
        "meta_ephemeris_type": 0,
        "meta_classification_type": "U",
        "meta_norad_cat_id": 30505,
        "meta_element_set_no": 999,
        "meta_rev_at_epoch": 97001,
        "meta_bstar": 0.0012848019,
        "meta_mean_motion_dot": 2.857e-05,
        "meta_mean_motion_ddot": 0,
        "tle_line1": "1 30505U 99025AHT 25352.20349959  .00002857  00000+0  12848-2 0  9992",
        "tle_line2": "2 30505  98.9266  71.9296 0063937 226.4924 188.9861 14.22074015970010"
      },
      "geometry": {
        "type": "Point",
        "coordinates": [
          88.94264838599884,
          -60.99281722761513
        ]
      }
    },
    {
      "type": "Feature",
      "properties": {
        "norad_id": 30506,
        "name": "FENGYUN 1C DEB",
        "group": "fengyun-1c-debris",
        "lat": 36.4857681771617,
        "lon": -8.901478357934764,
        "alt_km": 840.5072343243901,
        "timestamp": "2025-12-18T17:50:15.233784+00:00",
        "meta_object_name": "FENGYUN 1C DEB",
        "meta_object_id": "1999-025AHU",
        "meta_epoch": "2025-12-18T06:21:23.054688",
        "meta_mean_motion": 14.08657044,
        "meta_eccentricity": 0.0070041,
        "meta_inclination": 98.7566,
        "meta_ra_of_asc_node": 357.1794,
        "meta_arg_of_pericenter": 332.3095,
        "meta_mean_anomaly": 159.4314,
        "meta_ephemeris_type": 0,
        "meta_classification_type": "U",
        "meta_norad_cat_id": 30506,
        "meta_element_set_no": 999,
        "meta_rev_at_epoch": 96899,
        "meta_bstar": 0.00033164675,
        "meta_mean_motion_dot": 5.4e-06,
        "meta_mean_motion_ddot": 0,
        "tle_line1": "1 30506U 99025AHU 25352.26485017  .00000540  00000+0  33165-3 0  9998",
        "tle_line2": "2 30506  98.7566 357.1794 0070041 332.3095 159.4314 14.08657044968997"
      },
      "geometry": {
        "type": "Point",
        "coordinates": [
          -8.901478357934764,
          36.4857681771617
        ]
      }
    },
    {
      "type": "Feature",
      "properties": {
        "norad_id": 30507,
        "name": "FENGYUN 1C DEB",
        "group": "fengyun-1c-debris",
        "lat": -70.38057915561575,
        "lon": -149.17051454439118,
        "alt_km": 859.2656702608747,
        "timestamp": "2025-12-18T17:50:15.233793+00:00",
        "meta_object_name": "FENGYUN 1C DEB",
        "meta_object_id": "1999-025AHV",
        "meta_epoch": "2025-12-18T03:12:43.165152",
        "meta_mean_motion": 14.13201853,
        "meta_eccentricity": 0.01284332,
        "meta_inclination": 99.0136,
        "meta_ra_of_asc_node": 56.6572,
        "meta_arg_of_pericenter": 161.232,
        "meta_mean_anomaly": 231.1471,
        "meta_ephemeris_type": 0,
        "meta_classification_type": "U",
        "meta_norad_cat_id": 30507,
        "meta_element_set_no": 999,
        "meta_rev_at_epoch": 96574,
        "meta_bstar": 0.00092359001,
        "meta_mean_motion_dot": 1.825e-05,
        "meta_mean_motion_ddot": 0,
        "tle_line1": "1 30507U 99025AHV 25352.13383293  .00001825  00000+0  92359-3 0  9995",
        "tle_line2": "2 30507  99.0136  56.6572 0128433 161.2320 231.1471 14.13201853965740"
      },
      "geometry": {
        "type": "Point",
        "coordinates": [
          -149.17051454439118,
          -70.38057915561575
        ]
      }
    },
    {
      "type": "Feature",
      "properties": {
        "norad_id": 30509,
        "name": "FENGYUN 1C DEB",
        "group": "fengyun-1c-debris",
        "lat": -55.78331649412208,
        "lon": -123.13356500507088,
        "alt_km": 890.509348407355,
        "timestamp": "2025-12-18T17:50:15.233803+00:00",
        "meta_object_name": "FENGYUN 1C DEB",
        "meta_object_id": "1999-025AHX",
        "meta_epoch": "2025-12-18T03:27:38.543904",
        "meta_mean_motion": 14.07685829,
        "meta_eccentricity": 0.01023389,
        "meta_inclination": 98.4664,
        "meta_ra_of_asc_node": 223.6527,
        "meta_arg_of_pericenter": 48.2366,
        "meta_mean_anomaly": 102.2371,
        "meta_ephemeris_type": 0,
        "meta_classification_type": "U",
        "meta_norad_cat_id": 30509,
        "meta_element_set_no": 999,
        "meta_rev_at_epoch": 95798,
        "meta_bstar": 0.0015926856,
        "meta_mean_motion_dot": 2.785e-05,
        "meta_mean_motion_ddot": 0,
        "tle_line1": "1 30509U 99025AHX 25352.14419611  .00002785  00000+0  15927-2 0  9993",
        "tle_line2": "2 30509  98.4664 223.6527 0102338  48.2366 102.2371 14.07685829957983"
      },
      "geometry": {
        "type": "Point",
        "coordinates": [
          -123.13356500507088,
          -55.78331649412208
        ]
      }
    },
    {
      "type": "Feature",
      "properties": {
        "norad_id": 30510,
        "name": "FENGYUN 1C DEB",
        "group": "fengyun-1c-debris",
        "lat": 71.09502291639814,
        "lon": -146.64037463547473,
        "alt_km": 800.8523051995098,
        "timestamp": "2025-12-18T17:50:15.233814+00:00",
        "meta_object_name": "FENGYUN 1C DEB",
        "meta_object_id": "1999-025AHY",
        "meta_epoch": "2025-12-18T00:27:53.093664",
        "meta_mean_motion": 14.12875799,
        "meta_eccentricity": 0.00786273,
        "meta_inclination": 99.2445,
        "meta_ra_of_asc_node": 4.2172,
        "meta_arg_of_pericenter": 151.5617,
        "meta_mean_anomaly": 235.7588,
        "meta_ephemeris_type": 0,
        "meta_classification_type": "U",
        "meta_norad_cat_id": 30510,
        "meta_element_set_no": 999,
        "meta_rev_at_epoch": 96649,
        "meta_bstar": 0.0010440724,
        "meta_mean_motion_dot": 1.954e-05,
        "meta_mean_motion_ddot": 0,
        "tle_line1": "1 30510U 99025AHY 25352.01936451  .00001954  00000+0  10441-2 0  9990",
        "tle_line2": "2 30510  99.2445   4.2172 0078627 151.5617 235.7588 14.12875799966491"
      },
      "geometry": {
        "type": "Point",
        "coordinates": [
          -146.64037463547473,
          71.09502291639814
        ]
      }
    },
    {
      "type": "Feature",
      "properties": {
        "norad_id": 30514,
        "name": "FENGYUN 1C DEB",
        "group": "fengyun-1c-debris",
        "lat": -5.072126839163765,
        "lon": 16.869587487710593,
        "alt_km": 759.8343624706886,
        "timestamp": "2025-12-18T17:50:15.233824+00:00",
        "meta_object_name": "FENGYUN 1C DEB",
        "meta_object_id": "1999-025AJC",
        "meta_epoch": "2025-12-18T01:07:10.668864",
        "meta_mean_motion": 14.34373308,
        "meta_eccentricity": 0.01743956,
        "meta_inclination": 98.4126,
        "meta_ra_of_asc_node": 15.4386,
        "meta_arg_of_pericenter": 78.4144,
        "meta_mean_anomaly": 283.656,
        "meta_ephemeris_type": 0,
        "meta_classification_type": "U",
        "meta_norad_cat_id": 30514,
        "meta_element_set_no": 999,
        "meta_rev_at_epoch": 98301,
        "meta_bstar": 0.00040433511,
        "meta_mean_motion_dot": 1.304e-05,
        "meta_mean_motion_ddot": 0,
        "tle_line1": "1 30514U 99025AJC 25352.04665126  .00001304  00000+0  40434-3 0  9990",
        "tle_line2": "2 30514  98.4126  15.4386 0174395  78.4144 283.6560 14.34373308983016"
      },
      "geometry": {
        "type": "Point",
        "coordinates": [
          16.869587487710593,
          -5.072126839163765
        ]
      }
    },
    {
      "type": "Feature",
      "properties": {
        "norad_id": 30515,
        "name": "FENGYUN 1C DEB",
        "group": "fengyun-1c-debris",
        "lat": 81.04602365931513,
        "lon": 156.339279570006,
        "alt_km": 687.0808099616415,
        "timestamp": "2025-12-18T17:50:15.233834+00:00",
        "meta_object_name": "FENGYUN 1C DEB",
        "meta_object_id": "1999-025AJD",
        "meta_epoch": "2025-12-18T07:10:44.246208",
        "meta_mean_motion": 13.63809882,
        "meta_eccentricity": 0.04969795,
        "meta_inclination": 98.5095,
        "meta_ra_of_asc_node": 227.7867,
        "meta_arg_of_pericenter": 59.9327,
        "meta_mean_anomaly": 5.3925,
        "meta_ephemeris_type": 0,
        "meta_classification_type": "U",
        "meta_norad_cat_id": 30515,
        "meta_element_set_no": 999,
        "meta_rev_at_epoch": 93406,
        "meta_bstar": 0.0008514256,
        "meta_mean_motion_dot": 1.535e-05,
        "meta_mean_motion_ddot": 0,
        "tle_line1": "1 30515U 99025AJD 25352.29912322  .00001535  00000+0  85143-3 0  9993",
        "tle_line2": "2 30515  98.5095 227.7867 0496979  59.9327   5.3925 13.63809882934064"
      },
      "geometry": {
        "type": "Point",
        "coordinates": [
          156.339279570006,
          81.04602365931513
        ]
      }
    }
  ]
}